<?xml version="1.0" encoding="UTF-8"?>
<ndm xmlns:xsi="http://www.w3.org/2001/XMLSchema-instance" xsi:noNamespaceSchemaLocation="https://sanaregistry.org/r/ndmxml_unqualified/ndmxml-2.0.0-master-2.0.xsd">
<omm id="CCSDS_OMM_VERS" version="2.0">
<header><CREATION_DATE/><ORIGINATOR/></header><body><segment><metadata><OBJECT_NAME>KUIPER-00053</OBJECT_NAME><OBJECT_ID>2025-134P</OBJECT_ID><CENTER_NAME>EARTH</CENTER_NAME><REF_FRAME>TEME</REF_FRAME><TIME_SYSTEM>UTC</TIME_SYSTEM><MEAN_ELEMENT_THEORY>SGP4</MEAN_ELEMENT_THEORY></metadata><data><meanElements><EPOCH>2026-01-02T14:19:37.839936</EPOCH><MEAN_MOTION>14.79933408</MEAN_MOTION><ECCENTRICITY>.00004748</ECCENTRICITY><INCLINATION>51.9011</INCLINATION><RA_OF_ASC_NODE>155.3504</RA_OF_ASC_NODE><ARG_OF_PERICENTER>115.3053</ARG_OF_PERICENTER><MEAN_ANOMALY>244.7959</MEAN_ANOMALY></meanElements><tleParameters><EPHEMERIS_TYPE>0</EPHEMERIS_TYPE><CLASSIFICATION_TYPE>U</CLASSIFICATION_TYPE><NORAD_CAT_ID>64513</NORAD_CAT_ID><ELEMENT_SET_NO>999</ELEMENT_SET_NO><REV_AT_EPOCH>3042</REV_AT_EPOCH><BSTAR>.14714512E-2</BSTAR><MEAN_MOTION_DOT>.11015E-3</MEAN_MOTION_DOT><MEAN_MOTION_DDOT>0</MEAN_MOTION_DDOT></tleParameters></data></segment></body></omm>
<omm id="CCSDS_OMM_VERS" version="2.0">
<header><CREATION_DATE/><ORIGINATOR/></header><body><segment><metadata><OBJECT_NAME>KUIPER-00054</OBJECT_NAME><OBJECT_ID>2025-134Q</OBJECT_ID><CENTER_NAME>EARTH</CENTER_NAME><REF_FRAME>TEME</REF_FRAME><TIME_SYSTEM>UTC</TIME_SYSTEM><MEAN_ELEMENT_THEORY>SGP4</MEAN_ELEMENT_THEORY></metadata><data><meanElements><EPOCH>2026-01-02T14:26:23.891424</EPOCH><MEAN_MOTION>14.79759295</MEAN_MOTION><ECCENTRICITY>.00057853</ECCENTRICITY><INCLINATION>51.8974</INCLINATION><RA_OF_ASC_NODE>150.3094</RA_OF_ASC_NODE><ARG_OF_PERICENTER>93.0270</ARG_OF_PERICENTER><MEAN_ANOMALY>267.1354</MEAN_ANOMALY></meanElements><tleParameters><EPHEMERIS_TYPE>0</EPHEMERIS_TYPE><CLASSIFICATION_TYPE>U</CLASSIFICATION_TYPE><NORAD_CAT_ID>64514</NORAD_CAT_ID><ELEMENT_SET_NO>999</ELEMENT_SET_NO><REV_AT_EPOCH>3049</REV_AT_EPOCH><BSTAR>.89893466E-3</BSTAR><MEAN_MOTION_DOT>.6611E-4</MEAN_MOTION_DOT><MEAN_MOTION_DDOT>0</MEAN_MOTION_DDOT></tleParameters></data></segment></body></omm>
<omm id="CCSDS_OMM_VERS" version="2.0">
<header><CREATION_DATE/><ORIGINATOR/></header><body><segment><metadata><OBJECT_NAME>KUIPER-00055</OBJECT_NAME><OBJECT_ID>2025-134R</OBJECT_ID><CENTER_NAME>EARTH</CENTER_NAME><REF_FRAME>TEME</REF_FRAME><TIME_SYSTEM>UTC</TIME_SYSTEM><MEAN_ELEMENT_THEORY>SGP4</MEAN_ELEMENT_THEORY></metadata><data><meanElements><EPOCH>2026-01-03T01:33:17.321184</EPOCH><MEAN_MOTION>15.18455576</MEAN_MOTION><ECCENTRICITY>.0001785</ECCENTRICITY><INCLINATION>51.8906</INCLINATION><RA_OF_ASC_NODE>128.4192</RA_OF_ASC_NODE><ARG_OF_PERICENTER>279.8456</ARG_OF_PERICENTER><MEAN_ANOMALY>80.2322</MEAN_ANOMALY></meanElements><tleParameters><EPHEMERIS_TYPE>0</EPHEMERIS_TYPE><CLASSIFICATION_TYPE>U</CLASSIFICATION_TYPE><NORAD_CAT_ID>64515</NORAD_CAT_ID><ELEMENT_SET_NO>999</ELEMENT_SET_NO><REV_AT_EPOCH>3084</REV_AT_EPOCH><BSTAR>.12785719E-2</BSTAR><MEAN_MOTION_DOT>.26463E-3</MEAN_MOTION_DOT><MEAN_MOTION_DDOT>0</MEAN_MOTION_DDOT></tleParameters></data></segment></body></omm>
<omm id="CCSDS_OMM_VERS" version="2.0">
<header><CREATION_DATE/><ORIGINATOR/></header><body><segment><metadata><OBJECT_NAME>KUIPER-00056</OBJECT_NAME><OBJECT_ID>2025-134S</OBJECT_ID><CENTER_NAME>EARTH</CENTER_NAME><REF_FRAME>TEME</REF_FRAME><TIME_SYSTEM>UTC</TIME_SYSTEM><MEAN_ELEMENT_THEORY>SGP4</MEAN_ELEMENT_THEORY></metadata><data><meanElements><EPOCH>2026-01-03T03:14:55.430592</EPOCH><MEAN_MOTION>14.79942519</MEAN_MOTION><ECCENTRICITY>.0002504</ECCENTRICITY><INCLINATION>51.9031</INCLINATION><RA_OF_ASC_NODE>154.0110</RA_OF_ASC_NODE><ARG_OF_PERICENTER>93.3336</ARG_OF_PERICENTER><MEAN_ANOMALY>266.7913</MEAN_ANOMALY></meanElements><tleParameters><EPHEMERIS_TYPE>0</EPHEMERIS_TYPE><CLASSIFICATION_TYPE>U</CLASSIFICATION_TYPE><NORAD_CAT_ID>64516</NORAD_CAT_ID><ELEMENT_SET_NO>999</ELEMENT_SET_NO><REV_AT_EPOCH>3049</REV_AT_EPOCH><BSTAR>.93677345E-4</BSTAR><MEAN_MOTION_DOT>.493E-5</MEAN_MOTION_DOT><MEAN_MOTION_DDOT>0</MEAN_MOTION_DDOT></tleParameters></data></segment></body></omm>
<omm id="CCSDS_OMM_VERS" version="2.0">
<header><CREATION_DATE/><ORIGINATOR/></header><body><segment><metadata><OBJECT_NAME>KUIPER-00057</OBJECT_NAME><OBJECT_ID>2025-134T</OBJECT_ID><CENTER_NAME>EARTH</CENTER_NAME><REF_FRAME>TEME</REF_FRAME><TIME_SYSTEM>UTC</TIME_SYSTEM><MEAN_ELEMENT_THEORY>SGP4</MEAN_ELEMENT_THEORY></metadata><data><meanElements><EPOCH>2026-01-03T03:03:19.619424</EPOCH><MEAN_MOTION>14.79955443</MEAN_MOTION><ECCENTRICITY>.0009344</ECCENTRICITY><INCLINATION>51.8984</INCLINATION><RA_OF_ASC_NODE>161.5235</RA_OF_ASC_NODE><ARG_OF_PERICENTER>62.7422</ARG_OF_PERICENTER><MEAN_ANOMALY>297.4491</MEAN_ANOMALY></meanElements><tleParameters><EPHEMERIS_TYPE>0</EPHEMERIS_TYPE><CLASSIFICATION_TYPE>U</CLASSIFICATION_TYPE><NORAD_CAT_ID>64517</NORAD_CAT_ID><ELEMENT_SET_NO>999</ELEMENT_SET_NO><REV_AT_EPOCH>3038</REV_AT_EPOCH><BSTAR>.47818079E-3</BSTAR><MEAN_MOTION_DOT>.3428E-4</MEAN_MOTION_DOT><MEAN_MOTION_DDOT>0</MEAN_MOTION_DDOT></tleParameters></data></segment></body></omm>
<omm id="CCSDS_OMM_VERS" version="2.0">
<header><CREATION_DATE/><ORIGINATOR/></header><body><segment><metadata><OBJECT_NAME>KUIPER-00058</OBJECT_NAME><OBJECT_ID>2025-134U</OBJECT_ID><CENTER_NAME>EARTH</CENTER_NAME><REF_FRAME>TEME</REF_FRAME><TIME_SYSTEM>UTC</TIME_SYSTEM><MEAN_ELEMENT_THEORY>SGP4</MEAN_ELEMENT_THEORY></metadata><data><meanElements><EPOCH>2026-01-02T17:30:00.309600</EPOCH><MEAN_MOTION>14.79953524</MEAN_MOTION><ECCENTRICITY>.00043809</ECCENTRICITY><INCLINATION>51.9005</INCLINATION><RA_OF_ASC_NODE>157.2070</RA_OF_ASC_NODE><ARG_OF_PERICENTER>105.3623</ARG_OF_PERICENTER><MEAN_ANOMALY>254.7823</MEAN_ANOMALY></meanElements><tleParameters><EPHEMERIS_TYPE>0</EPHEMERIS_TYPE><CLASSIFICATION_TYPE>U</CLASSIFICATION_TYPE><NORAD_CAT_ID>64518</NORAD_CAT_ID><ELEMENT_SET_NO>999</ELEMENT_SET_NO><REV_AT_EPOCH>3041</REV_AT_EPOCH><BSTAR>.70565135E-3</BSTAR><MEAN_MOTION_DOT>.5165E-4</MEAN_MOTION_DOT><MEAN_MOTION_DDOT>0</MEAN_MOTION_DDOT></tleParameters></data></segment></body></omm>
<omm id="CCSDS_OMM_VERS" version="2.0">
<header><CREATION_DATE/><ORIGINATOR/></header><body><segment><metadata><OBJECT_NAME>KUIPER-00059</OBJECT_NAME><OBJECT_ID>2025-134V</OBJECT_ID><CENTER_NAME>EARTH</CENTER_NAME><REF_FRAME>TEME</REF_FRAME><TIME_SYSTEM>UTC</TIME_SYSTEM><MEAN_ELEMENT_THEORY>SGP4</MEAN_ELEMENT_THEORY></metadata><data><meanElements><EPOCH>2026-01-02T14:23:19.518144</EPOCH><MEAN_MOTION>14.79969135</MEAN_MOTION><ECCENTRICITY>.00020236</ECCENTRICITY><INCLINATION>51.8987</INCLINATION><RA_OF_ASC_NODE>152.8343</RA_OF_ASC_NODE><ARG_OF_PERICENTER>250.7759</ARG_OF_PERICENTER><MEAN_ANOMALY>109.2985</MEAN_ANOMALY></meanElements><tleParameters><EPHEMERIS_TYPE>0</EPHEMERIS_TYPE><CLASSIFICATION_TYPE>U</CLASSIFICATION_TYPE><NORAD_CAT_ID>64519</NORAD_CAT_ID><ELEMENT_SET_NO>999</ELEMENT_SET_NO><REV_AT_EPOCH>3046</REV_AT_EPOCH><BSTAR>.92476916E-3</BSTAR><MEAN_MOTION_DOT>.6842E-4</MEAN_MOTION_DOT><MEAN_MOTION_DDOT>0</MEAN_MOTION_DDOT></tleParameters></data></segment></body></omm>
<omm id="CCSDS_OMM_VERS" version="2.0">
<header><CREATION_DATE/><ORIGINATOR/></header><body><segment><metadata><OBJECT_NAME>KUIPER-00060</OBJECT_NAME><OBJECT_ID>2025-134W</OBJECT_ID><CENTER_NAME>EARTH</CENTER_NAME><REF_FRAME>TEME</REF_FRAME><TIME_SYSTEM>UTC</TIME_SYSTEM><MEAN_ELEMENT_THEORY>SGP4</MEAN_ELEMENT_THEORY></metadata><data><meanElements><EPOCH>2026-01-02T14:20:59.115552</EPOCH><MEAN_MOTION>14.79956405</MEAN_MOTION><ECCENTRICITY>.0002542</ECCENTRICITY><INCLINATION>51.9018</INCLINATION><RA_OF_ASC_NODE>153.8840</RA_OF_ASC_NODE><ARG_OF_PERICENTER>145.7115</ARG_OF_PERICENTER><MEAN_ANOMALY>214.4012</MEAN_ANOMALY></meanElements><tleParameters><EPHEMERIS_TYPE>0</EPHEMERIS_TYPE><CLASSIFICATION_TYPE>U</CLASSIFICATION_TYPE><NORAD_CAT_ID>64520</NORAD_CAT_ID><ELEMENT_SET_NO>999</ELEMENT_SET_NO><REV_AT_EPOCH>3043</REV_AT_EPOCH><BSTAR>.92390085E-3</BSTAR><MEAN_MOTION_DOT>.6833E-4</MEAN_MOTION_DOT><MEAN_MOTION_DDOT>0</MEAN_MOTION_DDOT></tleParameters></data></segment></body></omm>

</ndm>
